     2.11           N: GPS NAV DATA                         RINEX VERSION / TYPE
teqc  2018Dec12     gpsops              20240116 00:09:03UTCPGM / RUN BY / DATE
Linux 2.6.32-573.12.1.x86_64|x86_64|gcc -static|Linux 64|=+ COMMENT
BREW                                    MARKER NAME         COMMENT
40473M001                               MARKER NUMBER       COMMENT
-2112007.1404 -3705351.8421 4726827.1606                    COMMENT
This data is provided as a public service by NASA/JPL.      COMMENT
No warranty is expressed or implied regarding suitability   COMMENT
for use.  For further information, contact:                 COMMENT
ggnops at jpl dot nasa dot gov                              COMMENT
                                                            END OF HEADER
21 24  1 15 10  0  0.0 1.383391208947D-04-1.250555214938D-12 0.000000000000D+00
    6.200000000000D+01 9.625000000000D+01 4.215175578982D-09 1.855136068652D+00
    5.019828677177D-06 2.522306982428D-02 9.540468454361D-06 5.153739048004D+03
    1.224000000000D+05 2.589076757431D-07-1.970594674904D+00 2.477318048477D-07
    9.617734508904D-01 1.901562500000D+02-6.500971682993D-01-7.787824394146D-09
   -1.050043738536D-10 1.000000000000D+00 2.297000000000D+03 0.000000000000D+00
    2.000000000000D+00 0.000000000000D+00-1.024454832077D-08 6.200000000000D+01
    1.192380000000D+05 4.000000000000D+00
10 24  1 15  9 59 44.0-6.941612809896D-05-1.477928890381D-12 0.000000000000D+00
    0.000000000000D+00-6.500000000000D+00 4.367681931484D-09-2.390240201453D+00
   -4.507601261139D-07 9.287987602875D-03 2.745538949966D-06 5.153687473297D+03
    1.223840000000D+05 1.695007085800D-07-8.338235854935D-01-8.754432201385D-08
    9.821123336522D-01 3.377500000000D+02-2.391464238176D+00-8.188912529648D-09
    1.832219176426D-10 1.000000000000D+00 2.297000000000D+03 0.000000000000D+00
    2.000000000000D+00 0.000000000000D+00 2.328306436539D-09 0.000000000000D+00
    1.204380000000D+05 4.000000000000D+00
 2 24  1 15  9 59 44.0-5.005877465010D-04 5.570655048359D-12 0.000000000000D+00
    2.900000000000D+01 9.515625000000D+01 4.075169747177D-09 2.258813373307D+00
    4.805624485016D-06 1.630189095158D-02 9.810552000999D-06 5.153904579163D+03
    1.223840000000D+05 2.309679985046D-07-1.964193112161D+00 0.000000000000D+00
    9.674901573113D-01 1.886250000000D+02-1.262865446569D+00-7.708178219420D-09
    7.607459738377D-11 1.000000000000D+00 2.297000000000D+03 0.000000000000D+00
    2.000000000000D+00 0.000000000000D+00-1.769512891769D-08 2.900000000000D+01
    1.213380000000D+05 4.000000000000D+00
10 24  1 15 11 59 44.0-6.942730396986D-05-1.477928890381D-12 0.000000000000D+00
    4.900000000000D+01 1.187500000000D+00 4.321608583773D-09-1.340149822894D+00
    1.620501279831D-07 9.287766646594D-03 2.656131982803D-06 5.153686237335D+03
    1.295840000000D+05 1.732259988785D-07-8.338826405705D-01 2.793967723846D-08
    9.821138755679D-01 3.355312500000D+02-2.391383555318D+00-8.204984627687D-09
    2.157232714544D-10 1.000000000000D+00 2.297000000000D+03 0.000000000000D+00
    2.000000000000D+00 0.000000000000D+00 2.328306436539D-09 4.900000000000D+01
    1.224180000000D+05 4.000000000000D+00
32 24  1 15 12  0  0.0-6.052185781300D-04-2.842170943040D-12 0.000000000000D+00
    2.300000000000D+01-1.136875000000D+02 4.495901558060D-09-2.589633166353D+00
   -5.859881639481D-06 7.404677686282D-03 8.452683687210D-06 5.153628177643D+03
    1.296000000000D+05 9.872019290924D-08 2.037116658428D-01-1.117587089539D-07
    9.614490736759D-01 2.152812500000D+02-2.199807773635D+00-8.014262397626D-09
   -1.496490906282D-10 1.000000000000D+00 2.297000000000D+03 0.000000000000D+00
    2.000000000000D+00 0.000000000000D+00 4.656612873077D-10 2.300000000000D+01
    1.224180000000D+05 4.000000000000D+00
23 24  1 15 12  0  0.0 1.358198933303D-04 7.503331289627D-12 0.000000000000D+00
    1.790000000000D+02 9.968750000000D+00 4.531617331480D-09-1.807588176503D-01
    5.587935447693D-07 3.958255983889D-03 3.255903720856D-06 5.153698846817D+03
    1.296000000000D+05 1.490116119385D-08-8.622318790301D-01 4.656612873077D-08
    9.772381744182D-01 3.244375000000D+02-2.981697543488D+00-8.361419715265D-09
    1.825076021742D-10 1.000000000000D+00 2.297000000000D+03 0.000000000000D+00
    2.000000000000D+00 0.000000000000D+00-8.381903171539D-09 1.790000000000D+02
    1.224180000000D+05 4.000000000000D+00
 8 24  1 15 12  0  0.0-1.622028648853D-04-1.932676241267D-12 0.000000000000D+00
    1.400000000000D+02-1.718750000000D+01 4.512687971568D-09 2.920577522485D+00
   -9.052455425262D-07 9.201428270899D-03 9.508803486824D-06 5.153578439713D+03
    1.296000000000D+05-1.434236764908D-07-2.959653604835D+00-1.862645149231D-08
    9.555335186522D-01 1.947812500000D+02 2.989789846005D-01-7.984975463422D-09
   -4.828772566331D-10 1.000000000000D+00 2.297000000000D+03 0.000000000000D+00
    2.000000000000D+00 0.000000000000D+00 5.122274160385D-09 1.400000000000D+02
    1.224180000000D+05 4.000000000000D+00
24 24  1 15 12  0  0.0-4.142262041569D-04-7.162270776462D-12 0.000000000000D+00
    6.000000000000D+01-8.937500000000D+00 5.099498128852D-09 1.148111684489D+00
   -2.756714820862D-07 1.504866150208D-02 1.249648630619D-05 5.153740755081D+03
    1.296000000000D+05-2.216547727585D-07 1.166775319778D+00 1.396983861923D-07
    9.337111930705D-01 1.265625000000D+02 9.632248499527D-01-8.472495770600D-09
    2.114373786441D-10 1.000000000000D+00 2.297000000000D+03 0.000000000000D+00
    2.000000000000D+00 0.000000000000D+00 2.328306436539D-09 6.000000000000D+01
    1.224180000000D+05 4.000000000000D+00
21 24  1 15 12  0  0.0 1.383302733302D-04-1.250555214938D-12 0.000000000000D+00
    9.800000000000D+01 9.525000000000D+01 4.154458764169D-09 2.905257782917D+00
    4.926696419716D-06 2.522267436143D-02 9.793788194656D-06 5.153740108490D+03
    1.296000000000D+05-6.146728992462D-08-1.970651894019D+00 4.433095455170D-07
    9.617736118114D-01 1.861875000000D+02-6.500798649043D-01-7.688177386305D-09
    1.439345668810D-10 1.000000000000D+00 2.297000000000D+03 0.000000000000D+00
    2.800000000000D+00 0.000000000000D+00-1.024454832077D-08 9.800000000000D+01
    1.224180000000D+05 4.000000000000D+00
18 24  1 15 12  0  0.0-5.326112732291D-04-9.208633855451D-12 0.000000000000D+00
    1.350000000000D+02 6.781250000000D+01 4.074098273975D-09 8.853166458605D-01
    3.634020686150D-06 3.831349778920D-03 9.398907423019D-06 5.153633327484D+03
    1.296000000000D+05 2.235174179077D-08-1.862884823876D+00 8.940696716309D-08
    9.743268313891D-01 2.053437500000D+02-3.018928682794D+00-7.918186967127D-09
    2.289381076197D-10 1.000000000000D+00 2.297000000000D+03 0.000000000000D+00
    2.000000000000D+00 0.000000000000D+00-8.381903171539D-09 9.030000000000D+02
    1.224180000000D+05 4.000000000000D+00
 2 24  1 15 12  0  0.0-5.005472339690D-04 5.570655048359D-12 0.000000000000D+00
    3.000000000000D+01 9.431250000000D+01 4.111956993800D-09-2.971971881232D+00
    4.770234227180D-06 1.630318525713D-02 9.315088391304D-06 5.153902053833D+03
    1.296000000000D+05 1.732259988785D-07-1.964249412564D+00 1.899898052216D-07
    9.674911096710D-01 1.988437500000D+02-1.262894173891D+00-7.693177594584D-09
    2.139374827835D-10 1.000000000000D+00 2.297000000000D+03 0.000000000000D+00
    2.000000000000D+00 0.000000000000D+00-1.769512891769D-08 3.000000000000D+01
    1.224180000000D+05 4.000000000000D+00
28 24  1 15 12  0  0.0-9.944941848516D-05-1.136868377216D-11 0.000000000000D+00
    1.920000000000D+02 1.103125000000D+01 4.415541067866D-09-1.395855335389D+00
    5.774199962616D-07 7.274231174961D-04 1.108460128307D-05 5.153576213837D+03
    1.296000000000D+05-5.587935447693D-09 1.226907104508D+00-1.117587089539D-08
    9.611448437693D-01 1.653125000000D+02 1.715871572047D+00-7.923187175406D-09
    3.007268121931D-10 1.000000000000D+00 2.297000000000D+03 0.000000000000D+00
    2.000000000000D+00 0.000000000000D+00-9.313225746155D-09 9.600000000000D+02
    1.237920000000D+05 4.000000000000D+00
 1 24  1 15 12  0  0.0 1.661716960371D-04 1.023181539495D-12 0.000000000000D+00
    3.000000000000D+01 8.571875000000D+01 3.751227682261D-09 6.859748289651D-01
    4.464760422707D-06 1.311015698593D-02 9.153038263321D-06 5.154025537491D+03
    1.296000000000D+05-1.788139343262D-07-1.860471118764D+00 6.146728992462D-08
    9.904191965121D-01 2.205937500000D+02 9.985471722864D-01-7.948545374534D-09
    1.310768884500D-10 1.000000000000D+00 2.297000000000D+03 0.000000000000D+00
    2.000000000000D+00 6.300000000000D+01 5.122274160385D-09 3.000000000000D+01
    1.249620000000D+05 4.000000000000D+00
21 24  1 15 11 59 44.0 1.383298076689D-04-1.250555214938D-12 0.000000000000D+00
    1.000000000000D+00 9.525000000000D+01 4.154101606435D-09 2.902924102350D+00
    4.926696419716D-06 2.522267319728D-02 9.793788194656D-06 5.153740108490D+03
    1.295840000000D+05-6.146728992462D-08-1.970651775522D+00 4.433095455170D-07
    9.617736147372D-01 1.861875000000D+02-6.500798444235D-01-7.687820228571D-09
    1.435774091468D-10 1.000000000000D+00 2.297000000000D+03 0.000000000000D+00
    2.000000000000D+00 0.000000000000D+00-1.024454832077D-08 1.000000000000D+00
    1.257960000000D+05 4.000000000000D+00
31 24  1 15 12  0  0.0-2.273130230606D-04-2.273736754432D-13 0.000000000000D+00
    7.500000000000D+01 2.115625000000D+01 4.650550856967D-09-7.588372237934D-01
    1.229345798492D-06 1.060634467285D-02 1.035630702972D-05 5.153673763275D+03
    1.296000000000D+05 1.471489667892D-07 1.282490989995D+00 1.266598701477D-07
    9.540040655958D-01 1.767187500000D+02 6.507263825315D-01-8.150696652089D-09
    3.250135381184D-10 1.000000000000D+00 2.297000000000D+03 0.000000000000D+00
    2.000000000000D+00 0.000000000000D+00-1.350417733192D-08 7.500000000000D+01
    1.265580000000D+05 4.000000000000D+00
